{"type":"FeatureCollection","features":[{"type":"Feature","properties":{"site_id":"cardio-024","origine":"centre de Gien","destination":"9 rue du Château, La Bussière","temps_min":15.2,"distance_km":7.7,"methode":"Valhalla auto, réseau OpenStreetMap, sans trafic temps réel"},"geometry":{"type":"LineString","coordinates":[[2.670261,47.716311],[2.670699,47.716571],[2.671408,47.716924],[2.672711,47.717422],[2.674626,47.71843],[2.675124,47.718661],[2.675548,47.718784],[2.678356,47.71935],[2.678712,47.719453],[2.679052,47.719588],[2.680295,47.720204],[2.680433,47.720281],[2.680658,47.72038],[2.682081,47.720845],[2.682381,47.72097],[2.682706,47.721136],[2.684713,47.722666],[2.686134,47.723501],[2.688329,47.724827],[2.688526,47.724951],[2.688854,47.725123],[2.689161,47.725263],[2.690063,47.725614],[2.690198,47.725682],[2.690513,47.725851],[2.691433,47.726476],[2.691729,47.726648],[2.692005,47.726756],[2.692478,47.726878],[2.695684,47.727748],[2.696049,47.727871],[2.696468,47.728026],[2.697008,47.728256],[2.697463,47.728516],[2.698626,47.729343],[2.700636,47.730655],[2.7009,47.730896],[2.701106,47.731151],[2.701257,47.73156],[2.701525,47.732137],[2.701656,47.732363],[2.701867,47.732664],[2.70323,47.734125],[2.703545,47.734463],[2.705377,47.736402],[2.706597,47.737559],[2.707611,47.738489],[2.708187,47.739021],[2.708657,47.739377],[2.709181,47.739701],[2.710392,47.740227],[2.710656,47.740251],[2.71157,47.740335],[2.717198,47.74146],[2.723771,47.742773],[2.726114,47.743242],[2.726999,47.74342],[2.727896,47.743599],[2.730482,47.744117],[2.734513,47.744891],[2.734809,47.744914],[2.734998,47.744913],[2.735176,47.7449],[2.735434,47.744873],[2.73578,47.744801],[2.736704,47.744467],[2.736953,47.744357],[2.73716,47.74425],[2.737716,47.743899],[2.737778,47.743868],[2.737908,47.743771],[2.737986,47.743712],[2.738117,47.743666],[2.738198,47.743636],[2.738335,47.743579],[2.738906,47.743471],[2.738992,47.743451],[2.739363,47.743394],[2.739795,47.743319],[2.740072,47.743234],[2.740717,47.742997],[2.741041,47.742887],[2.741428,47.74275],[2.741996,47.74254],[2.743144,47.742093],[2.744196,47.741675],[2.744415,47.74159],[2.744905,47.741499],[2.745458,47.741431],[2.745502,47.741424],[2.745573,47.741531],[2.745718,47.741735],[2.745782,47.741845],[2.746191,47.742194],[2.746249,47.742241],[2.746835,47.742714],[2.747084,47.742923],[2.747475,47.743251],[2.747598,47.743355],[2.747892,47.74361],[2.747986,47.743686],[2.748714,47.744297],[2.748854,47.744411],[2.748904,47.744451],[2.748978,47.744471],[2.749019,47.744491],[2.749099,47.744416],[2.749228,47.744402],[2.749339,47.744446],[2.749397,47.744563],[2.749452,47.744705],[2.749445,47.744756],[2.749428,47.744767],[2.749406,47.744782],[2.749343,47.74479],[2.749382,47.744848],[2.74942,47.744923],[2.749507,47.744998],[2.74982,47.745276],[2.749849,47.745304],[2.749947,47.745394],[2.750086,47.745513],[2.75022,47.745624],[2.750471,47.745834],[2.75048,47.745841],[2.750752,47.746083],[2.750862,47.746176],[2.750769,47.74623],[2.750293,47.746529]]}}]}